STARLINK-35069          
1 66268U 25247D   25327.16670139  .00012886  00000+0  33174-3 0  9995
2 66268  53.1597 329.8207 0001702  71.0738 300.1695 15.39605133  4696
STARLINK-34910          
1 66269U 25247E   25327.16670139  .00043313  00000+0  78402-3 0  9998
2 66269  53.1597 328.6094 0001243  91.8055 150.5722 15.49253570  4749
STARLINK-35757          
1 66270U 25247F   25327.16670139  .00012328  00000+0  31784-3 0  9994
2 66270  53.1596 329.8172 0001654  70.9536 302.1568 15.39604672  4798
STARLINK-35745          
1 66271U 25247G   25327.16670139 -.02786133  00000+0 -72534-1 0  9997
2 66271  53.1598 329.7725 0000677 101.4339 294.0939 15.41901925  4794
STARLINK-35741          
1 66272U 25247H   25327.16670139 -.02660358  00000+0 -70436-1 0  9997
2 66272  53.1598 329.7684 0001177  76.2646 321.1430 15.41856225  4795
STARLINK-35730          
1 66273U 25247J   25327.16670139 -.02091432  00000+0 -50285-1 0  9999
2 66273  53.1599 329.7350 0001072  93.9675 319.9004 15.44377923  4797
STARLINK-35760          
1 66274U 25247K   25327.16670139 -.02101124  00000+0 -50558-1 0  9993
2 66274  53.1602 329.7324 0001201  81.3381 334.4186 15.44370983  4470
STARLINK-35752          
1 66275U 25247L   25327.15493678 -.00296849  00000+0 -58199-2 0  9991
2 66275  53.1594 329.7679 0001036  67.2096 292.9022 15.47877683  4677
STARLINK-35742          
1 66276U 25247M   25326.96083183  .00004433  00000+0  88811-4 0  9996
2 66276  53.1591 330.6898 0001525 189.0705 171.0277 15.48943837  4699
STARLINK-35708          
1 66277U 25247N   25327.15393296  .00064935  00000+0  11651-2 0  9997
2 66277  53.1594 329.7610 0001413  92.2094 267.9077 15.49329514  4724
STARLINK-35713          
1 66278U 25247P   25327.08873869  .00057794  00000+0  10389-2 0  9991
2 66278  53.1595 330.0653 0001368  72.8959 287.2200 15.49326990  4718
STARLINK-35724          
1 66279U 25247Q   25327.08839534  .00057307  00000+0  10302-2 0  9998
2 66279  53.1594 330.0623 0001444  86.5526 273.5648 15.49327937  4662
