CCSDS_OMM_VERS = 2.0
CREATION_DATE  = 
ORIGINATOR     = 

OBJECT_NAME    = STARLINK-35069
OBJECT_ID      = 2025-247D
CENTER_NAME    = EARTH
REF_FRAME      = TEME
TIME_SYSTEM    = UTC
MEAN_ELEMENT_THEORY = SGP/SGP4

EPOCH          = 2025-11-23T04:00:03.000096
MEAN_MOTION    = 15.39605133
ECCENTRICITY   = .0001702
INCLINATION    = 53.1597
RA_OF_ASC_NODE = 329.8207
ARG_OF_PERICENTER = 71.0738
MEAN_ANOMALY   = 300.1695

EPHEMERIS_TYPE = 0
CLASSIFICATION_TYPE = U
NORAD_CAT_ID   = 66268
ELEMENT_SET_NO = 999
REV_AT_EPOCH   = 469
BSTAR          = .33174E-3
MEAN_MOTION_DOT = .12886E-3
MEAN_MOTION_DDOT = 0

CCSDS_OMM_VERS = 2.0
CREATION_DATE  = 
ORIGINATOR     = 

OBJECT_NAME    = STARLINK-34910
OBJECT_ID      = 2025-247E
CENTER_NAME    = EARTH
REF_FRAME      = TEME
TIME_SYSTEM    = UTC
MEAN_ELEMENT_THEORY = SGP/SGP4

EPOCH          = 2025-11-23T04:00:03.000096
MEAN_MOTION    = 15.49253570
ECCENTRICITY   = .0001243
INCLINATION    = 53.1597
RA_OF_ASC_NODE = 328.6094
ARG_OF_PERICENTER = 91.8055
MEAN_ANOMALY   = 150.5722

EPHEMERIS_TYPE = 0
CLASSIFICATION_TYPE = U
NORAD_CAT_ID   = 66269
ELEMENT_SET_NO = 999
REV_AT_EPOCH   = 474
BSTAR          = .78402E-3
MEAN_MOTION_DOT = .43313E-3
MEAN_MOTION_DDOT = 0

CCSDS_OMM_VERS = 2.0
CREATION_DATE  = 
ORIGINATOR     = 

OBJECT_NAME    = STARLINK-35757
OBJECT_ID      = 2025-247F
CENTER_NAME    = EARTH
REF_FRAME      = TEME
TIME_SYSTEM    = UTC
MEAN_ELEMENT_THEORY = SGP/SGP4

EPOCH          = 2025-11-23T04:00:03.000096
MEAN_MOTION    = 15.39604672
ECCENTRICITY   = .0001654
INCLINATION    = 53.1596
RA_OF_ASC_NODE = 329.8172
ARG_OF_PERICENTER = 70.9536
MEAN_ANOMALY   = 302.1568

EPHEMERIS_TYPE = 0
CLASSIFICATION_TYPE = U
NORAD_CAT_ID   = 66270
ELEMENT_SET_NO = 999
REV_AT_EPOCH   = 479
BSTAR          = .31784E-3
MEAN_MOTION_DOT = .12328E-3
MEAN_MOTION_DDOT = 0

CCSDS_OMM_VERS = 2.0
CREATION_DATE  = 
ORIGINATOR     = 

OBJECT_NAME    = STARLINK-35745
OBJECT_ID      = 2025-247G
CENTER_NAME    = EARTH
REF_FRAME      = TEME
TIME_SYSTEM    = UTC
MEAN_ELEMENT_THEORY = SGP/SGP4

EPOCH          = 2025-11-23T04:00:03.000096
MEAN_MOTION    = 15.41901925
ECCENTRICITY   = .0000677
INCLINATION    = 53.1598
RA_OF_ASC_NODE = 329.7725
ARG_OF_PERICENTER = 101.4339
MEAN_ANOMALY   = 294.0939

EPHEMERIS_TYPE = 0
CLASSIFICATION_TYPE = U
NORAD_CAT_ID   = 66271
ELEMENT_SET_NO = 999
REV_AT_EPOCH   = 479
BSTAR          = -.72534E-1
MEAN_MOTION_DOT = -.2786133E-1
MEAN_MOTION_DDOT = 0

CCSDS_OMM_VERS = 2.0
CREATION_DATE  = 
ORIGINATOR     = 

OBJECT_NAME    = STARLINK-35741
OBJECT_ID      = 2025-247H
CENTER_NAME    = EARTH
REF_FRAME      = TEME
TIME_SYSTEM    = UTC
MEAN_ELEMENT_THEORY = SGP/SGP4

EPOCH          = 2025-11-23T04:00:03.000096
MEAN_MOTION    = 15.41856225
ECCENTRICITY   = .0001177
INCLINATION    = 53.1598
RA_OF_ASC_NODE = 329.7684
ARG_OF_PERICENTER = 76.2646
MEAN_ANOMALY   = 321.1430

EPHEMERIS_TYPE = 0
CLASSIFICATION_TYPE = U
NORAD_CAT_ID   = 66272
ELEMENT_SET_NO = 999
REV_AT_EPOCH   = 479
BSTAR          = -.70436E-1
MEAN_MOTION_DOT = -.2660358E-1
MEAN_MOTION_DDOT = 0

CCSDS_OMM_VERS = 2.0
CREATION_DATE  = 
ORIGINATOR     = 

OBJECT_NAME    = STARLINK-35730
OBJECT_ID      = 2025-247J
CENTER_NAME    = EARTH
REF_FRAME      = TEME
TIME_SYSTEM    = UTC
MEAN_ELEMENT_THEORY = SGP/SGP4

EPOCH          = 2025-11-23T04:00:03.000096
MEAN_MOTION    = 15.44377923
ECCENTRICITY   = .0001072
INCLINATION    = 53.1599
RA_OF_ASC_NODE = 329.7350
ARG_OF_PERICENTER = 93.9675
MEAN_ANOMALY   = 319.9004

EPHEMERIS_TYPE = 0
CLASSIFICATION_TYPE = U
NORAD_CAT_ID   = 66273
ELEMENT_SET_NO = 999
REV_AT_EPOCH   = 479
BSTAR          = -.50285E-1
MEAN_MOTION_DOT = -.2091432E-1
MEAN_MOTION_DDOT = 0

CCSDS_OMM_VERS = 2.0
CREATION_DATE  = 
ORIGINATOR     = 

OBJECT_NAME    = STARLINK-35760
OBJECT_ID      = 2025-247K
CENTER_NAME    = EARTH
REF_FRAME      = TEME
TIME_SYSTEM    = UTC
MEAN_ELEMENT_THEORY = SGP/SGP4

EPOCH          = 2025-11-23T04:00:03.000096
MEAN_MOTION    = 15.44370983
ECCENTRICITY   = .0001201
INCLINATION    = 53.1602
RA_OF_ASC_NODE = 329.7324
ARG_OF_PERICENTER = 81.3381
MEAN_ANOMALY   = 334.4186

EPHEMERIS_TYPE = 0
CLASSIFICATION_TYPE = U
NORAD_CAT_ID   = 66274
ELEMENT_SET_NO = 999
REV_AT_EPOCH   = 447
BSTAR          = -.50558E-1
MEAN_MOTION_DOT = -.2101124E-1
MEAN_MOTION_DDOT = 0

CCSDS_OMM_VERS = 2.0
CREATION_DATE  = 
ORIGINATOR     = 

OBJECT_NAME    = STARLINK-35752
OBJECT_ID      = 2025-247L
CENTER_NAME    = EARTH
REF_FRAME      = TEME
TIME_SYSTEM    = UTC
MEAN_ELEMENT_THEORY = SGP/SGP4

EPOCH          = 2025-11-23T03:43:06.537792
MEAN_MOTION    = 15.47877683
ECCENTRICITY   = .0001036
INCLINATION    = 53.1594
RA_OF_ASC_NODE = 329.7679
ARG_OF_PERICENTER = 67.2096
MEAN_ANOMALY   = 292.9022

EPHEMERIS_TYPE = 0
CLASSIFICATION_TYPE = U
NORAD_CAT_ID   = 66275
ELEMENT_SET_NO = 999
REV_AT_EPOCH   = 467
BSTAR          = -.58199E-2
MEAN_MOTION_DOT = -.296849E-2
MEAN_MOTION_DDOT = 0

CCSDS_OMM_VERS = 2.0
CREATION_DATE  = 
ORIGINATOR     = 

OBJECT_NAME    = STARLINK-35742
OBJECT_ID      = 2025-247M
CENTER_NAME    = EARTH
REF_FRAME      = TEME
TIME_SYSTEM    = UTC
MEAN_ELEMENT_THEORY = SGP/SGP4

EPOCH          = 2025-11-22T23:03:35.870112
MEAN_MOTION    = 15.48943837
ECCENTRICITY   = .0001525
INCLINATION    = 53.1591
RA_OF_ASC_NODE = 330.6898
ARG_OF_PERICENTER = 189.0705
MEAN_ANOMALY   = 171.0277

EPHEMERIS_TYPE = 0
CLASSIFICATION_TYPE = U
NORAD_CAT_ID   = 66276
ELEMENT_SET_NO = 999
REV_AT_EPOCH   = 469
BSTAR          = .88811E-4
MEAN_MOTION_DOT = .4433E-4
MEAN_MOTION_DDOT = 0

CCSDS_OMM_VERS = 2.0
CREATION_DATE  = 
ORIGINATOR     = 

OBJECT_NAME    = STARLINK-35708
OBJECT_ID      = 2025-247N
CENTER_NAME    = EARTH
REF_FRAME      = TEME
TIME_SYSTEM    = UTC
MEAN_ELEMENT_THEORY = SGP/SGP4

EPOCH          = 2025-11-23T03:41:39.807744
MEAN_MOTION    = 15.49329514
ECCENTRICITY   = .0001413
INCLINATION    = 53.1594
RA_OF_ASC_NODE = 329.7610
ARG_OF_PERICENTER = 92.2094
MEAN_ANOMALY   = 267.9077

EPHEMERIS_TYPE = 0
CLASSIFICATION_TYPE = U
NORAD_CAT_ID   = 66277
ELEMENT_SET_NO = 999
REV_AT_EPOCH   = 472
BSTAR          = .11651E-2
MEAN_MOTION_DOT = .64935E-3
MEAN_MOTION_DDOT = 0

CCSDS_OMM_VERS = 2.0
CREATION_DATE  = 
ORIGINATOR     = 

OBJECT_NAME    = STARLINK-35713
OBJECT_ID      = 2025-247P
CENTER_NAME    = EARTH
REF_FRAME      = TEME
TIME_SYSTEM    = UTC
MEAN_ELEMENT_THEORY = SGP/SGP4

EPOCH          = 2025-11-23T02:07:47.022816
MEAN_MOTION    = 15.49326990
ECCENTRICITY   = .0001368
INCLINATION    = 53.1595
RA_OF_ASC_NODE = 330.0653
ARG_OF_PERICENTER = 72.8959
MEAN_ANOMALY   = 287.2200

EPHEMERIS_TYPE = 0
CLASSIFICATION_TYPE = U
NORAD_CAT_ID   = 66278
ELEMENT_SET_NO = 999
REV_AT_EPOCH   = 471
BSTAR          = .10389E-2
MEAN_MOTION_DOT = .57794E-3
MEAN_MOTION_DDOT = 0

CCSDS_OMM_VERS = 2.0
CREATION_DATE  = 
ORIGINATOR     = 

OBJECT_NAME    = STARLINK-35724
OBJECT_ID      = 2025-247Q
CENTER_NAME    = EARTH
REF_FRAME      = TEME
TIME_SYSTEM    = UTC
MEAN_ELEMENT_THEORY = SGP/SGP4

EPOCH          = 2025-11-23T02:07:17.357376
MEAN_MOTION    = 15.49327937
ECCENTRICITY   = .0001444
INCLINATION    = 53.1594
RA_OF_ASC_NODE = 330.0623
ARG_OF_PERICENTER = 86.5526
MEAN_ANOMALY   = 273.5648

EPHEMERIS_TYPE = 0
CLASSIFICATION_TYPE = U
NORAD_CAT_ID   = 66279
ELEMENT_SET_NO = 999
REV_AT_EPOCH   = 466
BSTAR          = .10302E-2
MEAN_MOTION_DOT = .57307E-3
MEAN_MOTION_DDOT = 0

